H1 CPF 01  gfz 2021 04 14 00  6041 tandemx   
H2 1003001  6202 36605    2021 04 14 00 59 42 2021 04 19 00 00 42   120 1 1  0 0 0
H9
10 0 59321  25902.000000  0    6083784.829  -2248828.067  -2331381.992
10 0 59321  26022.000000  0    5682091.085  -2291025.228  -3159198.867
10 0 59321  26142.000000  0    5181084.168  -2285408.482  -3931586.501
10 0 59321  26262.000000  0    4590438.550  -2230464.435  -4635065.488
10 0 59321  26382.000000  0    3921388.174  -2125720.966  -5257393.685
10 0 59321  26502.000000  0    3186502.269  -1971776.058  -5787772.133
10 0 59321  26622.000000  0    2399442.569  -1770304.163  -6217021.490
10 0 59321  26742.000000  0    1574707.126  -1524040.648  -6537730.766
10 0 59321  26862.000000  0     727361.995  -1236744.371  -6744374.791
10 0 59321  26982.000000  0    -127231.110   -913140.290  -6833398.938
10 0 59321  27102.000000  0    -973687.818   -558842.504  -6803273.108
10 0 59321  27222.000000  0   -1796871.371   -180259.065  -6654515.357
10 0 59321  27342.000000  0   -2582157.307    215521.271  -6389683.166
10 0 59321  27462.000000  0   -3315687.014    620857.503  -6013333.743
10 0 59321  27582.000000  0   -3984608.884   1027699.307  -5531955.042
10 0 59321  27702.000000  0   -4577304.668   1427741.861  -4953864.849
10 0 59321  27822.000000  0   -5083595.884   1812591.465  -4289079.626
10 0 59321  27942.000000  0   -5494926.650   2173939.021  -3549151.047
10 0 59321  28062.000000  0   -5804517.642   2503735.876  -2746973.860
10 0 59321  28182.000000  0   -6007489.332   2794369.777  -1896567.039
10 0 59321  28302.000000  0   -6100949.955   3038836.725  -1012830.483
10 0 59321  28422.000000  0   -6084045.071   3230904.551   -111281.612
10 0 59321  28542.000000  0   -5957966.882   3365263.025    792223.418
10 0 59321  28662.000000  0   -5725920.856   3437656.298   1681777.543
10 0 59321  28782.000000  0   -5393051.260   3444994.884   2541711.826
10 0 59321  28902.000000  0   -4966327.931   3385443.607   3356879.679
10 0 59321  29022.000000  0   -4454397.544   3258483.407   4112930.979
10 0 59321  29142.000000  0   -3867402.104   3064945.078   4796569.169
10 0 59321  29262.000000  0   -3216771.583   2807015.145   5395785.666
10 0 59321  29382.000000  0   -2514994.494   2488214.852   5900070.162
10 0 59321  29502.000000  0   -1775371.274   2113351.156   6300591.102
10 0 59321  29622.000000  0   -1011756.693   1688441.633   6590344.492
10 0 59321  29742.000000  0    -238297.906   1220615.435   6764268.666
10 0 59321  29862.000000  0     530827.220    717991.914   6819327.402
10 0 59321  29982.000000  0    1281669.416    189539.367   6754559.368
10 0 59321  30102.000000  0    2000759.757   -355084.244   6571093.919
10 0 59321  30222.000000  0    2675350.555   -905707.267   6272133.474
10 0 59321  30342.000000  0    3293642.170  -1451833.406   5862901.835
10 0 59321  30462.000000  0    3844992.824  -1982841.494   5350558.570
10 0 59321  30582.000000  0    4320105.870  -2488192.227   4744078.803
10 0 59321  30702.000000  0    4711192.054  -2957638.331   4054102.262
10 0 59321  30822.000000  0    5012104.577  -3381435.094   3292751.105
10 0 59321  30942.000000  0    5218442.914  -3750544.919   2473417.496
10 0 59321  31062.000000  0    5327620.961  -4056831.023   1610525.468
10 0 59321  31182.000000  0    5338898.746  -4293236.772    719272.741
10 0 59321  31302.000000  0    5253377.471  -4453944.873   -184643.764
10 0 59321  31422.000000  0    5073957.188  -4534513.222  -1085312.840
10 0 59321  31542.000000  0    4805257.636  -4531982.505  -1966898.252
10 0 59321  31662.000000  0    4453504.633  -4444953.478  -2813925.112
10 0 59321  31782.000000  0    4026385.457  -4273632.270  -3611556.821
10 0 59321  31902.000000  0    3532877.431  -4019842.864  -4345857.312
10 0 59321  32022.000000  0    2983054.303  -3687006.991  -5004032.823
10 0 59321  32142.000000  0    2387875.297  -3280093.010  -5574649.011
10 0 59321  32262.000000  0    1758963.557  -2805535.868  -6047819.497
10 0 59321  32382.000000  0    1108378.839  -2271131.427  -6415366.919
10 0 59321  32502.000000  0     448386.463  -1685904.703  -6670954.678
10 0 59321  32622.000000  0    -208771.546  -1059955.135  -6810185.229
10 0 59321  32742.000000  0    -851098.545   -404283.377  -6830666.417
10 0 59321  32862.000000  0   -1467056.603    269398.106  -6732047.657
10 0 59321  32982.000000  0   -2045769.081    948868.901  -6516024.676
10 0 59321  33102.000000  0   -2577208.073   1621616.596  -6186313.489
10 0 59321  33222.000000  0   -3052365.225   2275061.412  -5748593.671
10 0 59321  33342.000000  0   -3463404.598   2896787.614  -5210421.632
10 0 59321  33462.000000  0   -3803795.404   3474778.488  -4581112.200
10 0 59321  33582.000000  0   -4068421.112   3997649.751  -3871587.646
10 0 59321  33702.000000  0   -4253660.759   4454876.563  -3094196.913
10 0 59321  33822.000000  0   -4357442.251   4837010.122  -2262508.305
10 0 59321  33942.000000  0   -4379266.762   5135877.885  -1391076.467
10 0 59321  34062.000000  0   -4320202.565   5344763.799   -495187.955
10 0 59321  34182.000000  0   -4182846.180   5458562.393    409412.377
10 0 59321  34302.000000  0   -3971251.974   5473900.838   1306804.535
10 0 59321  34422.000000  0   -3690832.571   5389228.384   2181183.422
10 0 59321  34542.000000  0   -3348230.651   5204866.830   3017147.670
10 0 59321  34662.000000  0   -2951165.290   4923022.533   3799978.288
10 0 59321  34782.000000  0   -2508259.682   4547761.370   4515902.420
10 0 59321  34902.000000  0   -2028853.305   4084946.389   5152338.423
10 0 59321  35022.000000  0   -1522803.637   3542139.672   5698116.960
10 0 59321  35142.000000  0   -1000281.399   2928471.195   6143673.840
10 0 59321  35262.000000  0    -471565.098   2254478.053   6481211.770
10 0 59321  35382.000000  0      53160.522   1531919.027   6704830.022
10 0 59321  35502.000000  0     564000.187    773566.517   6810622.720
10 0 59321  35622.000000  0    1051534.048     -7020.374   6796741.821
10 0 59321  35742.000000  0    1506990.273   -795737.180   6663427.889
10 0 59321  35862.000000  0    1922402.500  -1578188.653   6413006.776
10 0 59321  35982.000000  0    2290749.510  -2339950.700   6049852.005
10 0 59321  36102.000000  0    2606075.508  -3066837.364   5580313.761
10 0 59321  36222.000000  0    2863588.492  -3745167.410   5012613.147
10 0 59321  36342.000000  0    3059734.530  -4362025.460   4356703.957
10 0 59321  36462.000000  0    3192247.977  -4905514.184   3624103.069
10 0 59321  36582.000000  0    3260174.928  -5364990.553   2827689.986
10 0 59321  36702.000000  0    3263869.891  -5731281.720   1981480.066
10 0 59321  36822.000000  0    3204964.301  -5996874.532   1100374.205
10 0 59321  36942.000000  0    3086308.996  -6156072.965    199890.952
10 0 59321  37062.000000  0    2911892.293  -6205121.937   -704113.439
10 0 59321  37182.000000  0    2686733.581  -6142292.736  -1595734.713
10 0 59321  37302.000000  0    2416755.530  -5967925.012  -2459308.639
10 0 59321  37422.000000  0    2108640.218  -5684429.177  -3279692.960
10 0 59321  37542.000000  0    1769669.826  -5296246.415  -4042538.167
10 0 59321  37662.000000  0    1407559.115  -4809767.009  -4734537.699
10 0 59321  37782.000000  0    1030284.598  -4233213.269  -5343655.095
10 0 59321  37902.000000  0     645913.067  -3576490.303  -5859325.879
10 0 59321  38022.000000  0     262433.057  -2851007.058  -6272630.817
10 0 59321  38142.000000  0    -112407.016  -2069472.530  -6576438.566
10 0 59321  38262.000000  0    -471250.981  -1245671.182  -6765517.544
10 0 59321  38382.000000  0    -807274.461   -394221.333  -6836617.019
10 0 59321  38502.000000  0   -1114310.421    469680.363  -6788516.402
10 0 59321  38622.000000  0   -1386959.489   1330523.157  -6622042.971
10 0 59321  38742.000000  0   -1620682.624   2172753.618  -6340059.023
10 0 59321  38862.000000  0   -1811875.366   2981049.518  -5947418.784
10 0 59321  38982.000000  0   -1957923.631   3740595.216  -5450894.550
10 0 59321  39102.000000  0   -2057238.806   4437352.270  -4859070.900
10 0 59321  39222.000000  0   -2109272.730   5058322.426  -4182207.922
10 0 59321  39342.000000  0   -2114510.981   5591796.372  -3432072.527
10 0 59321  39462.000000  0   -2074443.997   6027582.324  -2621741.713
10 0 59321  39582.000000  0   -1991516.844   6357211.303  -1765380.382
10 0 59321  39702.000000  0   -1869058.994   6574112.916   -877994.471
10 0 59321  39822.000000  0   -1711194.698   6673755.608     24833.552
10 0 59321  39942.000000  0   -1522736.018   6653751.001    927223.173
10 0 59321  40062.000000  0   -1309060.930   6513914.454   1813286.427
10 0 59321  40182.000000  0   -1075978.851   6256276.960   2667417.982
10 0 59321  40302.000000  0    -829588.375   5885053.405   3474577.052
10 0 59321  40422.000000  0    -576130.976   5406568.927   4220557.588
10 0 59321  40542.000000  0    -321844.498   4829144.380   4892243.815
10 0 59321  40662.000000  0     -72817.741   4162938.625   5477842.325
10 0 59321  40782.000000  0     165147.824   3419761.231   5967084.303
10 0 59321  40902.000000  0     386666.182   2612855.045   6351402.829
10 0 59321  41022.000000  0     586883.199   1756653.245   6624076.520
10 0 59321  41142.000000  0     761578.872    866517.003   6780341.403
10 0 59321  41262.000000  0     907253.335    -41542.100   6817468.238
10 0 59321  41382.000000  0    1021195.528   -951148.839   6734807.588
10 0 59321  41502.000000  0    1101533.308  -1845859.499   6533801.454
10 0 59321  41622.000000  0    1147264.318  -2709458.864   6217960.084
10 0 59321  41742.000000  0    1158267.036  -3526255.758   5792804.638
10 0 59321  41862.000000  0    1135291.136  -4281370.562   5265774.336
10 0 59321  41982.000000  0    1079929.472  -4961008.976   4646101.898
10 0 59321  42102.000000  0     994570.915  -5552720.661   3944658.786
10 0 59321  42222.000000  0     882334.687  -6045637.632   3173768.353
10 0 59321  42342.000000  0     746987.721  -6430683.878   2346989.669
99
